[{"OBJECT_NAME":"NUSAT-41 (C PAYNE-G)","OBJECT_ID":"2023-084N","EPOCH":"2026-03-09T21:55:54.837696","MEAN_MOTION":15.29680045,"ECCENTRICITY":0.00062175,"INCLINATION":97.5351,"RA_OF_ASC_NODE":204.1011,"ARG_OF_PERICENTER":322.2064,"MEAN_ANOMALY":37.8738,"EPHEMERIS_TYPE":0,"CLASSIFICATION_TYPE":"U","NORAD_CAT_ID":56944,"ELEMENT_SET_NO":999,"REV_AT_EPOCH":15260,"BSTAR":0.00059912824,"MEAN_MOTION_DOT":0.0001718,"MEAN_MOTION_DDOT":0},{"OBJECT_NAME":"STARLINK-31394","OBJECT_ID":"2024-045H","EPOCH":"2026-03-09T10:23:14.537760","MEAN_MOTION":15.27604692,"ECCENTRICITY":0.00014562,"INCLINATION":43.0049,"RA_OF_ASC_NODE":83.4936,"ARG_OF_PERICENTER":280.5908,"MEAN_ANOMALY":79.478,"EPHEMERIS_TYPE":0,"CLASSIFICATION_TYPE":"U","NORAD_CAT_ID":59185,"ELEMENT_SET_NO":999,"REV_AT_EPOCH":11324,"BSTAR":-0.00020442855,"MEAN_MOTION_DOT":-5.888e-5,"MEAN_MOTION_DDOT":0}]
